{"type":"FeatureCollection","name":"service_boundaries_bbox_fallback","features":[{"type":"Feature","properties":{"ISO_A3":"KOR","NAME":"South Korea","NAME_KO":"\ub300\ud55c\ubbfc\uad6d","fallback":"bbox"},"geometry":{"type":"Polygon","coordinates":[[[126.0,33.0],[130.0,33.0],[130.0,39.0],[126.0,39.0],[126.0,33.0]]]}},{"type":"Feature","properties":{"ISO_A3":"JPN","NAME":"Japan","NAME_KO":"\uc77c\ubcf8","fallback":"bbox"},"geometry":{"type":"Polygon","coordinates":[[[128.5,30.0],[146.5,30.0],[146.5,46.5],[128.5,46.5],[128.5,30.0]]]}},{"type":"Feature","properties":{"ISO_A3":"ARE","NAME":"United Arab Emirates","NAME_KO":"\uc544\ub78d\uc5d0\ubbf8\ub9ac\ud2b8","fallback":"bbox"},"geometry":{"type":"Polygon","coordinates":[[[51.4,22.3],[56.6,22.3],[56.6,26.3],[51.4,26.3],[51.4,22.3]]]}},{"type":"Feature","properties":{"ISO_A3":"SAU","NAME":"Saudi Arabia","NAME_KO":"\uc0ac\uc6b0\ub514\uc544\ub77c\ube44\uc544","fallback":"bbox"},"geometry":{"type":"Polygon","coordinates":[[[34.3,16.0],[55.9,16.0],[55.9,32.5],[34.3,32.5],[34.3,16.0]]]}},{"type":"Feature","properties":{"ISO_A3":"OMN","NAME":"Oman","NAME_KO":"\uc624\ub9cc","fallback":"bbox"},"geometry":{"type":"Polygon","coordinates":[[[51.8,16.4],[59.9,16.4],[59.9,26.6],[51.8,26.6],[51.8,16.4]]]}},{"type":"Feature","properties":{"ISO_A3":"QAT","NAME":"Qatar","NAME_KO":"\uce74\ud0c0\ub974","fallback":"bbox"},"geometry":{"type":"Polygon","coordinates":[[[50.7,24.3],[51.8,24.3],[51.8,26.3],[50.7,26.3],[50.7,24.3]]]}},{"type":"Feature","properties":{"ISO_A3":"KWT","NAME":"Kuwait","NAME_KO":"\ucfe0\uc6e8\uc774\ud2b8","fallback":"bbox"},"geometry":{"type":"Polygon","coordinates":[[[46.4,28.4],[48.6,28.4],[48.6,30.2],[46.4,30.2],[46.4,28.4]]]}},{"type":"Feature","properties":{"ISO_A3":"BHR","NAME":"Bahrain","NAME_KO":"\ubc14\ub808\uc778","fallback":"bbox"},"geometry":{"type":"Polygon","coordinates":[[[50.3,25.7],[50.9,25.7],[50.9,26.4],[50.3,26.4],[50.3,25.7]]]}},{"type":"Feature","properties":{"ISO_A3":"SGP","NAME":"Singapore","NAME_KO":"\uc2f1\uac00\ud3ec\ub974","fallback":"bbox"},"geometry":{"type":"Polygon","coordinates":[[[103.55,1.1],[104.1,1.1],[104.1,1.55],[103.55,1.55],[103.55,1.1]]]}},{"type":"Feature","properties":{"ISO_A3":"IDN","NAME":"Indonesia","NAME_KO":"\uc778\ub3c4\ub124\uc2dc\uc544","fallback":"bbox"},"geometry":{"type":"Polygon","coordinates":[[[94.5,-11.5],[141.5,-11.5],[141.5,6.5],[94.5,6.5],[94.5,-11.5]]]}},{"type":"Feature","properties":{"ISO_A3":"PHL","NAME":"Philippines","NAME_KO":"\ud544\ub9ac\ud540","fallback":"bbox"},"geometry":{"type":"Polygon","coordinates":[[[116.5,4.5],[127.0,4.5],[127.0,20.5],[116.5,20.5],[116.5,4.5]]]}},{"type":"Feature","properties":{"ISO_A3":"VNM","NAME":"Vietnam","NAME_KO":"\ubca0\ud2b8\ub0a8","fallback":"bbox"},"geometry":{"type":"Polygon","coordinates":[[[101.5,8.0],[110.2,8.0],[110.2,24.0],[101.5,24.0],[101.5,8.0]]]}},{"type":"Feature","properties":{"ISO_A3":"THA","NAME":"Thailand","NAME_KO":"\ud0dc\uad6d","fallback":"bbox"},"geometry":{"type":"Polygon","coordinates":[[[96.5,5.0],[106.5,5.0],[106.5,21.0],[96.5,21.0],[96.5,5.0]]]}},{"type":"Feature","properties":{"ISO_A3":"MYS","NAME":"Malaysia","NAME_KO":"\ub9d0\ub808\uc774\uc2dc\uc544","fallback":"bbox"},"geometry":{"type":"Polygon","coordinates":[[[99.0,0.5],[119.5,0.5],[119.5,7.8],[99.0,7.8],[99.0,0.5]]]}},{"type":"Feature","properties":{"ISO_A3":"BRN","NAME":"Brunei","NAME_KO":"\ube0c\ub8e8\ub098\uc774","fallback":"bbox"},"geometry":{"type":"Polygon","coordinates":[[[114.0,4.0],[115.5,4.0],[115.5,5.2],[114.0,5.2],[114.0,4.0]]]}},{"type":"Feature","properties":{"ISO_A3":"KHM","NAME":"Cambodia","NAME_KO":"\uce84\ubcf4\ub514\uc544","fallback":"bbox"},"geometry":{"type":"Polygon","coordinates":[[[102.0,10.0],[108.0,10.0],[108.0,15.0],[102.0,15.0],[102.0,10.0]]]}},{"type":"Feature","properties":{"ISO_A3":"LAO","NAME":"Laos","NAME_KO":"\ub77c\uc624\uc2a4","fallback":"bbox"},"geometry":{"type":"Polygon","coordinates":[[[100.0,13.5],[108.0,13.5],[108.0,23.0],[100.0,23.0],[100.0,13.5]]]}},{"type":"Feature","properties":{"ISO_A3":"MMR","NAME":"Myanmar","NAME_KO":"\ubbf8\uc580\ub9c8","fallback":"bbox"},"geometry":{"type":"Polygon","coordinates":[[[91.0,9.0],[102.0,9.0],[102.0,29.0],[91.0,29.0],[91.0,9.0]]]}}]}